[{"id":1,"name":"Адыгейск","postal_code":"385200","region_id":1},{"id":2,"name":"Майкоп","postal_code":"385000","region_id":1},{"id":3,"name":"Горно-Алтайск","postal_code":"649000","region_id":4},{"id":4,"name":"Алейск","postal_code":"658125","region_id":22},{"id":5,"name":"Барнаул","postal_code":"656000","region_id":22},{"id":6,"name":"Белокуриха","postal_code":"659900","region_id":22},{"id":7,"name":"Бийск","postal_code":"659300","region_id":22},{"id":8,"name":"Горняк","postal_code":"658420","region_id":22},{"id":9,"name":"Заринск","postal_code":"659100","region_id":22},{"id":10,"name":"Змеиногорск","postal_code":"658480","region_id":22},{"id":11,"name":"Камень-на-Оби","postal_code":"658700","region_id":22},{"id":12,"name":"Новоалтайск","postal_code":"658041","region_id":22},{"id":13,"name":"Рубцовск","postal_code":"658200","region_id":22},{"id":14,"name":"Славгород","postal_code":"658820","region_id":22},{"id":15,"name":"Яровое","postal_code":"658837","region_id":22},{"id":16,"name":"Белогорск","postal_code":"676805","region_id":28},{"id":17,"name":"Благовещенск","postal_code":"675000","region_id":28},{"id":18,"name":"Завитинск","postal_code":"676870","region_id":28},{"id":19,"name":"Зея","postal_code":"676151","region_id":28},{"id":20,"name":"Райчихинск","postal_code":"676770","region_id":28},{"id":21,"name":"Свободный","postal_code":"676450","region_id":28},{"id":22,"name":"Сковородино","postal_code":"676011","region_id":28},{"id":23,"name":"Тында","postal_code":"676280","region_id":28},{"id":24,"name":"Циолковский","postal_code":"676470","region_id":28},{"id":25,"name":"Шимановск","postal_code":"676301","region_id":28},{"id":26,"name":"Архангельск","postal_code":"163000","region_id":29},{"id":27,"name":"Вельск","postal_code":"165150","region_id":29},{"id":28,"name":"Каргополь","postal_code":"164110","region_id":29},{"id":29,"name":"Коряжма","postal_code":"165650","region_id":29},{"id":30,"name":"Котлас","postal_code":"165300","region_id":29},{"id":31,"name":"Мезень","postal_code":"164750","region_id":29},{"id":32,"name":"Мирный","postal_code":"164170","region_id":29},{"id":33,"name":"Новодвинск","postal_code":"164900","region_id":29},{"id":34,"name":"Няндома","postal_code":"164200","region_id":29},{"id":35,"name":"Онега","postal_code":"164840","region_id":29},{"id":36,"name":"Северодвинск","postal_code":"164500","region_id":29},{"id":37,"name":"Сольвычегодск","postal_code":"165330","region_id":29},{"id":38,"name":"Шенкурск","postal_code":"165160","region_id":29},{"id":39,"name":"Астрахань","postal_code":"414000","region_id":30},{"id":40,"name":"Ахтубинск","postal_code":"416500","region_id":30},{"id":41,"name":"Знаменск","postal_code":"416540","region_id":30},{"id":42,"name":"Камызяк","postal_code":"416340","region_id":30},{"id":43,"name":"Нариманов","postal_code":"416111","region_id":30},{"id":44,"name":"Харабали","postal_code":"416010","region_id":30},{"id":45,"name":"Агидель","postal_code":"452920","region_id":2},{"id":46,"name":"Баймак","postal_code":"453630","region_id":2},{"id":47,"name":"Белебей","postal_code":"452000","region_id":2},{"id":48,"name":"Белорецк","postal_code":"453500","region_id":2},{"id":49,"name":"Бирск","postal_code":"452450","region_id":2},{"id":50,"name":"Благовещенск","postal_code":"453430","region_id":2},{"id":51,"name":"Давлеканово","postal_code":"453400","region_id":2},{"id":52,"name":"Дюртюли","postal_code":"452320","region_id":2},{"id":53,"name":"Ишимбай","postal_code":"453200","region_id":2},{"id":54,"name":"Кумертау","postal_code":"453300","region_id":2},{"id":55,"name":"Межгорье","postal_code":"453570","region_id":2},{"id":56,"name":"Мелеуз","postal_code":"453853","region_id":2},{"id":57,"name":"Нефтекамск","postal_code":"452680","region_id":2},{"id":58,"name":"Октябрьский","postal_code":"452601","region_id":2},{"id":59,"name":"Салават","postal_code":"453250","region_id":2},{"id":60,"name":"Сибай","postal_code":"453830","region_id":2},{"id":61,"name":"Стерлитамак","postal_code":"453100","region_id":2},{"id":62,"name":"Туймазы","postal_code":"452750","region_id":2},{"id":63,"name":"Уфа","postal_code":"450000","region_id":2},{"id":64,"name":"Учалы","postal_code":"453700","region_id":2},{"id":65,"name":"Янаул","postal_code":"452800","region_id":2},{"id":66,"name":"Алексеевка","postal_code":"309850","region_id":31},{"id":67,"name":"Белгород","postal_code":"308000","region_id":31},{"id":68,"name":"Бирюч","postal_code":"309920","region_id":31},{"id":69,"name":"Валуйки","postal_code":"309990","region_id":31},{"id":70,"name":"Грайворон","postal_code":"309370","region_id":31},{"id":71,"name":"Губкин","postal_code":"309180","region_id":31},{"id":72,"name":"Короча","postal_code":"309210","region_id":31},{"id":73,"name":"Новый Оскол","postal_code":"309640","region_id":31},{"id":74,"name":"Старый Оскол","postal_code":"309500","region_id":31},{"id":75,"name":"Строитель","postal_code":"309070","region_id":31},{"id":76,"name":"Шебекино","postal_code":"309290","region_id":31},{"id":77,"name":"Брянск","postal_code":"241000","region_id":32},{"id":78,"name":"Дятьково","postal_code":"242600","region_id":32},{"id":79,"name":"Жуковка","postal_code":"242700","region_id":32},{"id":80,"name":"Злынка","postal_code":"243600","region_id":32},{"id":81,"name":"Карачев","postal_code":"242500","region_id":32},{"id":82,"name":"Клинцы","postal_code":"243140","region_id":32},{"id":83,"name":"Мглин","postal_code":"243220","region_id":32},{"id":84,"name":"Новозыбков","postal_code":"243020","region_id":32},{"id":85,"name":"Почеп","postal_code":"243400","region_id":32},{"id":86,"name":"Севск","postal_code":"242440","region_id":32},{"id":87,"name":"Сельцо","postal_code":"241550","region_id":32},{"id":88,"name":"Стародуб","postal_code":"243240","region_id":32},{"id":89,"name":"Сураж","postal_code":"243500","region_id":32},{"id":90,"name":"Трубчевск","postal_code":"242220","region_id":32},{"id":91,"name":"Унеча","postal_code":"243300","region_id":32},{"id":92,"name":"Фокино","postal_code":"242610","region_id":32},{"id":93,"name":"Бабушкин","postal_code":"671230","region_id":3},{"id":94,"name":"Гусиноозерск","postal_code":"671160","region_id":3},{"id":95,"name":"Закаменск","postal_code":"671950","region_id":3},{"id":96,"name":"Кяхта","postal_code":"671840","region_id":3},{"id":97,"name":"Северобайкальск","postal_code":"671700","region_id":3},{"id":98,"name":"Улан-Удэ","postal_code":"670000","region_id":3},{"id":99,"name":"Александров","postal_code":"601650","region_id":33},{"id":100,"name":"Владимир","postal_code":"600000","region_id":33},{"id":101,"name":"Вязники","postal_code":"601440","region_id":33},{"id":102,"name":"Гороховец","postal_code":"601480","region_id":33},{"id":103,"name":"Гусь-Хрустальный","postal_code":"601500","region_id":33},{"id":104,"name":"Камешково","postal_code":"601300","region_id":33},{"id":105,"name":"Карабаново","postal_code":"601640","region_id":33},{"id":106,"name":"Киржач","postal_code":"601010","region_id":33},{"id":107,"name":"Ковров","postal_code":"601900","region_id":33},{"id":108,"name":"Кольчугино","postal_code":"601780","region_id":33},{"id":109,"name":"Костерево","postal_code":"601110","region_id":33},{"id":110,"name":"Курлово","postal_code":"601570","region_id":33},{"id":111,"name":"Лакинск","postal_code":"601240","region_id":33},{"id":112,"name":"Меленки","postal_code":"602101","region_id":33},{"id":113,"name":"Муром","postal_code":"602205","region_id":33},{"id":114,"name":"Петушки","postal_code":"601140","region_id":33},{"id":115,"name":"Покров","postal_code":"601120","region_id":33},{"id":116,"name":"Радужный","postal_code":"600910","region_id":33},{"id":117,"name":"Собинка","postal_code":"601201","region_id":33},{"id":118,"name":"Струнино","postal_code":"601670","region_id":33},{"id":119,"name":"Судогда","postal_code":"601351","region_id":33},{"id":120,"name":"Суздаль","postal_code":"601291","region_id":33},{"id":121,"name":"Юрьев-Польский","postal_code":"601800","region_id":33},{"id":122,"name":"Волгоград","postal_code":"400000","region_id":34},{"id":123,"name":"Волжский","postal_code":"404100","region_id":34},{"id":124,"name":"Дубовка","postal_code":"404002","region_id":34},{"id":125,"name":"Жирновск","postal_code":"403790","region_id":34},{"id":126,"name":"Калач-на-Дону","postal_code":"404500","region_id":34},{"id":127,"name":"Камышин","postal_code":"403870","region_id":34},{"id":128,"name":"Котельниково","postal_code":"404350","region_id":34},{"id":129,"name":"Котово","postal_code":"403801","region_id":34},{"id":130,"name":"Краснослободск","postal_code":"404160","region_id":34},{"id":131,"name":"Ленинск","postal_code":"404620","region_id":34},{"id":132,"name":"Михайловка","postal_code":"403340","region_id":34},{"id":133,"name":"Николаевск","postal_code":"404030","region_id":34},{"id":134,"name":"Новоаннинский","postal_code":"403950","region_id":34},{"id":135,"name":"Палласовка","postal_code":"404260","region_id":34},{"id":136,"name":"Петров Вал","postal_code":"403840","region_id":34},{"id":137,"name":"Серафимович","postal_code":"403441","region_id":34},{"id":138,"name":"Суровикино","postal_code":"404410","region_id":34},{"id":139,"name":"Урюпинск","postal_code":"403110","region_id":34},{"id":140,"name":"Фролово","postal_code":"403530","region_id":34},{"id":141,"name":"Бабаево","postal_code":"162480","region_id":35},{"id":142,"name":"Белозерск","postal_code":"161200","region_id":35},{"id":143,"name":"Великий Устюг","postal_code":"162390","region_id":35},{"id":144,"name":"Вологда","postal_code":"160000","region_id":35},{"id":145,"name":"Вытегра","postal_code":"162900","region_id":35},{"id":146,"name":"Грязовец","postal_code":"162000","region_id":35},{"id":147,"name":"Кадников","postal_code":"162107","region_id":35},{"id":148,"name":"Кириллов","postal_code":"161100","region_id":35},{"id":149,"name":"Красавино","postal_code":"162341","region_id":35},{"id":150,"name":"Никольск","postal_code":"161440","region_id":35},{"id":151,"name":"Сокол","postal_code":"162129","region_id":35},{"id":152,"name":"Тотьма","postal_code":"161300","region_id":35},{"id":153,"name":"Устюжна","postal_code":"162840","region_id":35},{"id":154,"name":"Харовск","postal_code":"162250","region_id":35},{"id":155,"name":"Череповец","postal_code":"162600","region_id":35},{"id":156,"name":"Бобров","postal_code":"397700","region_id":36},{"id":157,"name":"Богучар","postal_code":"396790","region_id":36},{"id":158,"name":"Борисоглебск","postal_code":"397160","region_id":36},{"id":159,"name":"Бутурлиновка","postal_code":"397500","region_id":36},{"id":160,"name":"Воронеж","postal_code":"394000","region_id":36},{"id":161,"name":"Калач","postal_code":"397600","region_id":36},{"id":162,"name":"Лиски","postal_code":"397904","region_id":36},{"id":163,"name":"Нововоронеж","postal_code":"396070","region_id":36},{"id":164,"name":"Новохоперск","postal_code":"397400","region_id":36},{"id":165,"name":"Острогожск","postal_code":"397837","region_id":36},{"id":166,"name":"Павловск","postal_code":"396420","region_id":36},{"id":167,"name":"Поворино","postal_code":"397350","region_id":36},{"id":168,"name":"Россошь","postal_code":"396650","region_id":36},{"id":169,"name":"Семилуки","postal_code":"396900","region_id":36},{"id":170,"name":"Эртиль","postal_code":"397030","region_id":36},{"id":171,"name":"Буйнакск","postal_code":"368220","region_id":5},{"id":172,"name":"Дагестанские Огни","postal_code":"368670","region_id":5},{"id":173,"name":"Дербент","postal_code":"368000","region_id":5},{"id":174,"name":"Избербаш","postal_code":"368500","region_id":5},{"id":175,"name":"Каспийск","postal_code":"368300","region_id":5},{"id":176,"name":"Кизилюрт","postal_code":"368120","region_id":5},{"id":177,"name":"Кизляр","postal_code":"368830","region_id":5},{"id":178,"name":"Махачкала","postal_code":"367000","region_id":5},{"id":179,"name":"Хасавюрт","postal_code":"368000","region_id":5},{"id":180,"name":"Южно-Сухокумск","postal_code":"368890","region_id":5},{"id":181,"name":"Биробиджан","postal_code":"679002","region_id":79},{"id":182,"name":"Облучье","postal_code":"679100","region_id":79},{"id":183,"name":"Балей","postal_code":"673450","region_id":75},{"id":184,"name":"Борзя","postal_code":"674600","region_id":75},{"id":185,"name":"Краснокаменск","postal_code":"674670","region_id":75},{"id":186,"name":"Могоча","postal_code":"673730","region_id":75},{"id":187,"name":"Нерчинск","postal_code":"673400","region_id":75},{"id":188,"name":"Петровск-Забайкальский","postal_code":"673000","region_id":75},{"id":189,"name":"Сретенск","postal_code":"673500","region_id":75},{"id":190,"name":"Хилок","postal_code":"673200","region_id":75},{"id":191,"name":"Чита","postal_code":"672000","region_id":75},{"id":192,"name":"Шилка","postal_code":"673303","region_id":75},{"id":193,"name":"Вичуга","postal_code":"155330","region_id":37},{"id":194,"name":"Гаврилов Посад","postal_code":"155000","region_id":37},{"id":195,"name":"Заволжск","postal_code":"155410","region_id":37},{"id":196,"name":"Иваново","postal_code":"153000","region_id":37},{"id":197,"name":"Кинешма","postal_code":"155800","region_id":37},{"id":198,"name":"Комсомольск","postal_code":"155150","region_id":37},{"id":199,"name":"Кохма","postal_code":"153510","region_id":37},{"id":200,"name":"Наволоки","postal_code":"155830","region_id":37},{"id":201,"name":"Плес","postal_code":"155555","region_id":37},{"id":202,"name":"Приволжск","postal_code":"155550","region_id":37},{"id":203,"name":"Пучеж","postal_code":"155360","region_id":37},{"id":204,"name":"Родники","postal_code":"155250","region_id":37},{"id":205,"name":"Тейково","postal_code":"155040","region_id":37},{"id":206,"name":"Фурманов","postal_code":"155520","region_id":37},{"id":207,"name":"Шуя","postal_code":"155900","region_id":37},{"id":208,"name":"Южа","postal_code":"155630","region_id":37},{"id":209,"name":"Юрьевец","postal_code":"155450","region_id":37},{"id":210,"name":"Карабулак","postal_code":"386230","region_id":6},{"id":211,"name":"Магас","postal_code":"386001","region_id":6},{"id":212,"name":"Малгобек","postal_code":"386300","region_id":6},{"id":213,"name":"Назрань","postal_code":"386100","region_id":6},{"id":214,"name":"Сунжа","postal_code":"386200","region_id":6},{"id":215,"name":"Алзамай","postal_code":"665160","region_id":38},{"id":216,"name":"Ангарск","postal_code":"665800","region_id":38},{"id":217,"name":"Байкальск","postal_code":"665930","region_id":38},{"id":218,"name":"Бирюсинск","postal_code":"665050","region_id":38},{"id":219,"name":"Бодайбо","postal_code":"666901","region_id":38},{"id":220,"name":"Братск","postal_code":"665700","region_id":38},{"id":221,"name":"Вихоревка","postal_code":"665770","region_id":38},{"id":222,"name":"Железногорск-Илимский","postal_code":"665650","region_id":38},{"id":223,"name":"Зима","postal_code":"665382","region_id":38},{"id":224,"name":"Иркутск","postal_code":"664000","region_id":38},{"id":225,"name":"Киренск","postal_code":"666700","region_id":38},{"id":226,"name":"Нижнеудинск","postal_code":"665100","region_id":38},{"id":227,"name":"Саянск","postal_code":"666300","region_id":38},{"id":228,"name":"Свирск","postal_code":"665420","region_id":38},{"id":229,"name":"Слюдянка","postal_code":"665902","region_id":38},{"id":230,"name":"Тайшет","postal_code":"665000","region_id":38},{"id":231,"name":"Тулун","postal_code":"665250","region_id":38},{"id":232,"name":"Усолье-Сибирское","postal_code":"665450","region_id":38},{"id":233,"name":"Усть-Илимск","postal_code":"666671","region_id":38},{"id":234,"name":"Усть-Кут","postal_code":"666780","region_id":38},{"id":235,"name":"Черемхово","postal_code":"665400","region_id":38},{"id":236,"name":"Шелехов","postal_code":"666031","region_id":38},{"id":237,"name":"Баксан","postal_code":"361500","region_id":7},{"id":238,"name":"Майский","postal_code":"361110","region_id":7},{"id":239,"name":"Нальчик","postal_code":"360000","region_id":7},{"id":240,"name":"Нарткала","postal_code":"361330","region_id":7},{"id":241,"name":"Прохладный","postal_code":"361040","region_id":7},{"id":242,"name":"Терек","postal_code":"361200","region_id":7},{"id":243,"name":"Тырныауз","postal_code":"361621","region_id":7},{"id":244,"name":"Чегем","postal_code":"361400","region_id":7},{"id":245,"name":"Багратионовск","postal_code":"238420","region_id":39},{"id":246,"name":"Балтийск","postal_code":"238520","region_id":39},{"id":247,"name":"Гвардейск","postal_code":"238210","region_id":39},{"id":248,"name":"Гурьевск","postal_code":"238300","region_id":39},{"id":249,"name":"Гусев","postal_code":"238050","region_id":39},{"id":250,"name":"Зеленоградск","postal_code":"238326","region_id":39},{"id":251,"name":"Калининград","postal_code":"236001","region_id":39},{"id":252,"name":"Краснознаменск","postal_code":"238730","region_id":39},{"id":253,"name":"Ладушкин","postal_code":"238460","region_id":39},{"id":254,"name":"Мамоново","postal_code":"238450","region_id":39},{"id":255,"name":"Неман","postal_code":"238710","region_id":39},{"id":256,"name":"Нестеров","postal_code":"238010","region_id":39},{"id":257,"name":"Озерск","postal_code":"238120","region_id":39},{"id":258,"name":"Пионерский","postal_code":"238590","region_id":39},{"id":259,"name":"Полесск","postal_code":"238630","region_id":39},{"id":260,"name":"Правдинск","postal_code":"238400","region_id":39},{"id":261,"name":"Приморск","postal_code":"238510","region_id":39},{"id":262,"name":"Светлогорск","postal_code":"238560","region_id":39},{"id":263,"name":"Светлый","postal_code":"238340","region_id":39},{"id":264,"name":"Славск","postal_code":"238600","region_id":39},{"id":265,"name":"Советск","postal_code":"238750","region_id":39},{"id":266,"name":"Черняховск","postal_code":"238150","region_id":39},{"id":267,"name":"Городовиковск","postal_code":"359050","region_id":8},{"id":268,"name":"Лагань","postal_code":"359220","region_id":8},{"id":269,"name":"Элиста","postal_code":"358000","region_id":8},{"id":270,"name":"Балабаново","postal_code":"249000","region_id":40},{"id":271,"name":"Белоусово","postal_code":"249160","region_id":40},{"id":272,"name":"Боровск","postal_code":"249010","region_id":40},{"id":273,"name":"Ермолино","postal_code":"249026","region_id":40},{"id":274,"name":"Жиздра","postal_code":"249340","region_id":40},{"id":275,"name":"Жуков","postal_code":"249190","region_id":40},{"id":276,"name":"Калуга","postal_code":"248000","region_id":40},{"id":277,"name":"Киров","postal_code":"249440","region_id":40},{"id":278,"name":"Козельск","postal_code":"249720","region_id":40},{"id":279,"name":"Кондрово","postal_code":"249830","region_id":40},{"id":280,"name":"Кременки","postal_code":"249185","region_id":40},{"id":281,"name":"Людиново","postal_code":"249400","region_id":40},{"id":282,"name":"Малоярославец","postal_code":"249091","region_id":40},{"id":283,"name":"Медынь","postal_code":"249950","region_id":40},{"id":284,"name":"Мещовск","postal_code":"249240","region_id":40},{"id":285,"name":"Мосальск","postal_code":"249930","region_id":40},{"id":286,"name":"Обнинск","postal_code":"249030","region_id":40},{"id":287,"name":"Сосенский","postal_code":"249710","region_id":40},{"id":288,"name":"Спас-Деменск","postal_code":"249610","region_id":40},{"id":289,"name":"Сухиничи","postal_code":"249270","region_id":40},{"id":290,"name":"Таруса","postal_code":"249100","region_id":40},{"id":291,"name":"Юхнов","postal_code":"249910","region_id":40},{"id":292,"name":"Вилючинск","postal_code":"684090","region_id":41},{"id":293,"name":"Елизово","postal_code":"684000","region_id":41},{"id":294,"name":"Петропавловск-Камчатский","postal_code":"683000","region_id":41},{"id":295,"name":"Карачаевск","postal_code":"369200","region_id":9},{"id":296,"name":"Теберда","postal_code":"369212","region_id":9},{"id":297,"name":"Усть-Джегута","postal_code":"369300","region_id":9},{"id":298,"name":"Черкесск","postal_code":"369000","region_id":9},{"id":299,"name":"Беломорск","postal_code":"186500","region_id":10},{"id":300,"name":"Кемь","postal_code":"186610","region_id":10},{"id":301,"name":"Кондопога","postal_code":"186220","region_id":10},{"id":302,"name":"Костомукша","postal_code":"186930","region_id":10},{"id":303,"name":"Лахденпохья","postal_code":"186730","region_id":10},{"id":304,"name":"Медвежьегорск","postal_code":"186350","region_id":10},{"id":305,"name":"Олонец","postal_code":"186000","region_id":10},{"id":306,"name":"Петрозаводск","postal_code":"185000","region_id":10},{"id":307,"name":"Питкяранта","postal_code":"186810","region_id":10},{"id":308,"name":"Пудож","postal_code":"186150","region_id":10},{"id":309,"name":"Сегежа","postal_code":"186420","region_id":10},{"id":310,"name":"Сортавала","postal_code":"186790","region_id":10},{"id":311,"name":"Суоярви","postal_code":"186870","region_id":10},{"id":312,"name":"Анжеро-Судженск","postal_code":"652470","region_id":42},{"id":313,"name":"Белово","postal_code":"652600","region_id":42},{"id":314,"name":"Березовский","postal_code":"652420","region_id":42},{"id":315,"name":"Гурьевск","postal_code":"652780","region_id":42},{"id":316,"name":"Калтан","postal_code":"652740","region_id":42},{"id":317,"name":"Кемерово","postal_code":"650000","region_id":42},{"id":318,"name":"Киселевск","postal_code":"652700","region_id":42},{"id":319,"name":"Ленинск-Кузнецкий","postal_code":"652500","region_id":42},{"id":320,"name":"Мариинск","postal_code":"652150","region_id":42},{"id":321,"name":"Междуреченск","postal_code":"652870","region_id":42},{"id":322,"name":"Мыски","postal_code":"652840","region_id":42},{"id":323,"name":"Новокузнецк","postal_code":"654000","region_id":42},{"id":324,"name":"Осинники","postal_code":"652800","region_id":42},{"id":325,"name":"Полысаево","postal_code":"652560","region_id":42},{"id":326,"name":"Прокопьевск","postal_code":"652701","region_id":42},{"id":327,"name":"Салаир","postal_code":"652770","region_id":42},{"id":328,"name":"Тайга","postal_code":"652400","region_id":42},{"id":329,"name":"Таштагол","postal_code":"652990","region_id":42},{"id":330,"name":"Топки","postal_code":"652300","region_id":42},{"id":331,"name":"Юрга","postal_code":"652050","region_id":42},{"id":332,"name":"Белая Холуница","postal_code":"613200","region_id":43},{"id":333,"name":"Вятские Поляны","postal_code":"612960","region_id":43},{"id":334,"name":"Зуевка","postal_code":"612410","region_id":43},{"id":335,"name":"Киров","postal_code":"610000","region_id":43},{"id":336,"name":"Кирово-Чепецк","postal_code":"613040","region_id":43},{"id":337,"name":"Кирс","postal_code":"612820","region_id":43},{"id":338,"name":"Котельнич","postal_code":"612600","region_id":43},{"id":339,"name":"Луза","postal_code":"613980","region_id":43},{"id":340,"name":"Малмыж","postal_code":"612920","region_id":43},{"id":341,"name":"Мураши","postal_code":"613710","region_id":43},{"id":342,"name":"Нолинск","postal_code":"613440","region_id":43},{"id":343,"name":"Омутнинск","postal_code":"612740","region_id":43},{"id":344,"name":"Орлов","postal_code":"612270","region_id":43},{"id":345,"name":"Слободской","postal_code":"613150","region_id":43},{"id":346,"name":"Советск","postal_code":"613341","region_id":43},{"id":347,"name":"Сосновка","postal_code":"612990","region_id":43},{"id":348,"name":"Уржум","postal_code":"613530","region_id":43},{"id":349,"name":"Яранск","postal_code":"612260","region_id":43},{"id":350,"name":"Воркута","postal_code":"169900","region_id":11},{"id":351,"name":"Вуктыл","postal_code":"169570","region_id":11},{"id":352,"name":"Емва","postal_code":"169200","region_id":11},{"id":353,"name":"Инта","postal_code":"169840","region_id":11},{"id":354,"name":"Микунь","postal_code":"169060","region_id":11},{"id":355,"name":"Печора","postal_code":"169600","region_id":11},{"id":356,"name":"Сосногорск","postal_code":"169500","region_id":11},{"id":357,"name":"Сыктывкар","postal_code":"167000","region_id":11},{"id":358,"name":"Усинск","postal_code":"169710","region_id":11},{"id":359,"name":"Ухта","postal_code":"169300","region_id":11},{"id":360,"name":"Буй","postal_code":"157000","region_id":44},{"id":361,"name":"Волгореченск","postal_code":"156901","region_id":44},{"id":362,"name":"Галич","postal_code":"157200","region_id":44},{"id":363,"name":"Кологрив","postal_code":"157440","region_id":44},{"id":364,"name":"Кострома","postal_code":"156000","region_id":44},{"id":365,"name":"Макарьев","postal_code":"157460","region_id":44},{"id":366,"name":"Мантурово","postal_code":"157300","region_id":44},{"id":367,"name":"Нерехта","postal_code":"157800","region_id":44},{"id":368,"name":"Нея","postal_code":"157331","region_id":44},{"id":369,"name":"Солигалич","postal_code":"157170","region_id":44},{"id":370,"name":"Чухлома","postal_code":"157130","region_id":44},{"id":371,"name":"Шарья","postal_code":"157500","region_id":44},{"id":372,"name":"Абинск","postal_code":"353320","region_id":23},{"id":373,"name":"Анапа","postal_code":"353440","region_id":23},{"id":374,"name":"Апшеронск","postal_code":"352690","region_id":23},{"id":375,"name":"Армавир","postal_code":"352900","region_id":23},{"id":376,"name":"Белореченск","postal_code":"352630","region_id":23},{"id":377,"name":"Геленджик","postal_code":"353460","region_id":23},{"id":378,"name":"Горячий Ключ","postal_code":"353288","region_id":23},{"id":379,"name":"Гулькевичи","postal_code":"352190","region_id":23},{"id":380,"name":"Ейск","postal_code":"353680","region_id":23},{"id":381,"name":"Кореновск","postal_code":"353180","region_id":23},{"id":382,"name":"Краснодар","postal_code":"350000","region_id":23},{"id":383,"name":"Кропоткин","postal_code":"352380","region_id":23},{"id":384,"name":"Крымск","postal_code":"353380","region_id":23},{"id":385,"name":"Курганинск","postal_code":"352430","region_id":23},{"id":386,"name":"Лабинск","postal_code":"352500","region_id":23},{"id":387,"name":"Новокубанск","postal_code":"352240","region_id":23},{"id":388,"name":"Новороссийск","postal_code":"353900","region_id":23},{"id":389,"name":"Приморско-Ахтарск","postal_code":"353860","region_id":23},{"id":390,"name":"Славянск-на-Кубани","postal_code":"353560","region_id":23},{"id":391,"name":"Сочи","postal_code":"354000","region_id":23},{"id":392,"name":"Темрюк","postal_code":"353500","region_id":23},{"id":393,"name":"Тимашевск","postal_code":"352700","region_id":23},{"id":394,"name":"Тихорецк","postal_code":"352120","region_id":23},{"id":395,"name":"Туапсе","postal_code":"352800","region_id":23},{"id":396,"name":"Усть-Лабинск","postal_code":"352330","region_id":23},{"id":397,"name":"Хадыженск","postal_code":"352680","region_id":23},{"id":398,"name":"Артемовск","postal_code":"662951","region_id":24},{"id":399,"name":"Ачинск","postal_code":"662150","region_id":24},{"id":400,"name":"Боготол","postal_code":"662060","region_id":24},{"id":401,"name":"Бородино","postal_code":"663980","region_id":24},{"id":402,"name":"Дивногорск","postal_code":"663081","region_id":24},{"id":403,"name":"Дудинка","postal_code":"647000","region_id":24},{"id":404,"name":"Енисейск","postal_code":"663150","region_id":24},{"id":405,"name":"Железногорск","postal_code":"662970","region_id":24},{"id":406,"name":"Заозерный","postal_code":"663960","region_id":24},{"id":407,"name":"Зеленогорск","postal_code":"663690","region_id":24},{"id":408,"name":"Игарка","postal_code":"663200","region_id":24},{"id":409,"name":"Иланский","postal_code":"663800","region_id":24},{"id":410,"name":"Канск","postal_code":"663600","region_id":24},{"id":411,"name":"Кодинск","postal_code":"663491","region_id":24},{"id":412,"name":"Красноярск","postal_code":"660000","region_id":24},{"id":413,"name":"Лесосибирск","postal_code":"662541","region_id":24},{"id":414,"name":"Минусинск","postal_code":"662600","region_id":24},{"id":415,"name":"Назарово","postal_code":"662200","region_id":24},{"id":416,"name":"Норильск","postal_code":"663300","region_id":24},{"id":417,"name":"Сосновоборск","postal_code":"662500","region_id":24},{"id":418,"name":"Ужур","postal_code":"662251","region_id":24},{"id":419,"name":"Уяр","postal_code":"663920","region_id":24},{"id":420,"name":"Шарыпово","postal_code":"662310","region_id":24},{"id":421,"name":"Ялта","postal_code":"298676","region_id":84},{"id":422,"name":"Алушта","postal_code":"298500","region_id":84},{"id":423,"name":"Армянск","postal_code":"296012","region_id":84},{"id":424,"name":"Бахчисарай","postal_code":"298400","region_id":84},{"id":425,"name":"Белогорск","postal_code":"297600","region_id":84},{"id":426,"name":"Джанкой","postal_code":"296100","region_id":84},{"id":427,"name":"Евпатория","postal_code":"297402","region_id":84},{"id":428,"name":"Керчь","postal_code":"298300","region_id":84},{"id":429,"name":"Красноперекопск","postal_code":"296000","region_id":84},{"id":430,"name":"Саки","postal_code":"296500","region_id":84},{"id":431,"name":"Симферополь","postal_code":"295000","region_id":84},{"id":432,"name":"Старый Крым","postal_code":"297345","region_id":84},{"id":433,"name":"Судак","postal_code":"298000","region_id":84},{"id":434,"name":"Феодосия","postal_code":"298100","region_id":84},{"id":435,"name":"Щелкино","postal_code":"298213","region_id":84},{"id":436,"name":"Ялта","postal_code":"298600","region_id":84},{"id":437,"name":"Далматово","postal_code":"641730","region_id":45},{"id":438,"name":"Катайск","postal_code":"641700","region_id":45},{"id":439,"name":"Курган","postal_code":"640002","region_id":45},{"id":440,"name":"Куртамыш","postal_code":"641430","region_id":45},{"id":441,"name":"Макушино","postal_code":"641600","region_id":45},{"id":442,"name":"Петухово","postal_code":"641640","region_id":45},{"id":443,"name":"Шадринск","postal_code":"641870","region_id":45},{"id":444,"name":"Шумиха","postal_code":"641100","region_id":45},{"id":445,"name":"Щучье","postal_code":"641010","region_id":45},{"id":446,"name":"Дмитриев","postal_code":"307500","region_id":46},{"id":447,"name":"Железногорск","postal_code":"307170","region_id":46},{"id":448,"name":"Курск","postal_code":"305000","region_id":46},{"id":449,"name":"Курчатов","postal_code":"307250","region_id":46},{"id":450,"name":"Льгов","postal_code":"307750","region_id":46},{"id":451,"name":"Обоянь","postal_code":"306230","region_id":46},{"id":452,"name":"Рыльск","postal_code":"307370","region_id":46},{"id":453,"name":"Суджа","postal_code":"307800","region_id":46},{"id":454,"name":"Фатеж","postal_code":"307100","region_id":46},{"id":455,"name":"Щигры","postal_code":"306509","region_id":46},{"id":456,"name":"Бокситогорск","postal_code":"187650","region_id":47},{"id":457,"name":"Волосово","postal_code":"188410","region_id":47},{"id":458,"name":"Волхов","postal_code":"187401","region_id":47},{"id":459,"name":"Всеволожск","postal_code":"188640","region_id":47},{"id":460,"name":"Выборг","postal_code":"188800","region_id":47},{"id":461,"name":"Высоцк","postal_code":"188909","region_id":47},{"id":462,"name":"Гатчина","postal_code":"188300","region_id":47},{"id":463,"name":"Ивангород","postal_code":"188490","region_id":47},{"id":464,"name":"Каменногорск","postal_code":"188950","region_id":47},{"id":465,"name":"Кингисепп","postal_code":"188455","region_id":47},{"id":466,"name":"Кириши","postal_code":"187110","region_id":47},{"id":467,"name":"Кировск","postal_code":"187340","region_id":47},{"id":468,"name":"Коммунар","postal_code":"188320","region_id":47},{"id":469,"name":"Кудрово","postal_code":"188691","region_id":47},{"id":470,"name":"Лодейное Поле","postal_code":"187700","region_id":47},{"id":471,"name":"Луга","postal_code":"188230","region_id":47},{"id":472,"name":"Любань","postal_code":"187050","region_id":47},{"id":473,"name":"Мурино","postal_code":"188662","region_id":47},{"id":474,"name":"Никольское","postal_code":"187026","region_id":47},{"id":475,"name":"Новая Ладога","postal_code":"187450","region_id":47},{"id":476,"name":"Отрадное","postal_code":"187330","region_id":47},{"id":477,"name":"Пикалево","postal_code":"187600","region_id":47},{"id":478,"name":"Подпорожье","postal_code":"187780","region_id":47},{"id":479,"name":"Приморск","postal_code":"188910","region_id":47},{"id":480,"name":"Приозерск","postal_code":"188760","region_id":47},{"id":481,"name":"Светогорск","postal_code":"188990","region_id":47},{"id":482,"name":"Сертолово","postal_code":"188650","region_id":47},{"id":483,"name":"Сланцы","postal_code":"188560","region_id":47},{"id":484,"name":"Сосновый Бор","postal_code":"188540","region_id":47},{"id":485,"name":"Сясьстрой","postal_code":"187420","region_id":47},{"id":486,"name":"Тихвин","postal_code":"187550","region_id":47},{"id":487,"name":"Тосно","postal_code":"187000","region_id":47},{"id":488,"name":"Шлиссельбург","postal_code":"187320","region_id":47},{"id":489,"name":"Грязи","postal_code":"399050","region_id":48},{"id":490,"name":"Данков","postal_code":"399850","region_id":48},{"id":491,"name":"Елец","postal_code":"399770","region_id":48},{"id":492,"name":"Задонск","postal_code":"399200","region_id":48},{"id":493,"name":"Лебедянь","postal_code":"399610","region_id":48},{"id":494,"name":"Липецк","postal_code":"398000","region_id":48},{"id":495,"name":"Усмань","postal_code":"399341","region_id":48},{"id":496,"name":"Чаплыгин","postal_code":"399900","region_id":48},{"id":497,"name":"Магадан","postal_code":"685000","region_id":49},{"id":498,"name":"Сусуман","postal_code":"686314","region_id":49},{"id":499,"name":"Волжск","postal_code":"425000","region_id":12},{"id":500,"name":"Звенигово","postal_code":"425060","region_id":12},{"id":501,"name":"Йошкар-Ола","postal_code":"424000","region_id":12},{"id":502,"name":"Козьмодемьянск","postal_code":"425350","region_id":12},{"id":503,"name":"Ардатов","postal_code":"431850","region_id":13},{"id":504,"name":"Инсар","postal_code":"431430","region_id":13},{"id":505,"name":"Ковылкино","postal_code":"431350","region_id":13},{"id":506,"name":"Краснослободск","postal_code":"431260","region_id":13},{"id":507,"name":"Рузаевка","postal_code":"431440","region_id":13},{"id":508,"name":"Саранск","postal_code":"430000","region_id":13},{"id":509,"name":"Темников","postal_code":"431220","region_id":13},{"id":510,"name":"","postal_code":"101000","region_id":77},{"id":511,"name":"Апрелевка","postal_code":"143360","region_id":50},{"id":512,"name":"Балашиха","postal_code":"143900","region_id":50},{"id":513,"name":"Белоозёрский","postal_code":"140250","region_id":50},{"id":514,"name":"Бронницы","postal_code":"140170","region_id":50},{"id":515,"name":"Верея","postal_code":"143330","region_id":50},{"id":516,"name":"Видное","postal_code":"142700","region_id":50},{"id":517,"name":"Волоколамск","postal_code":"143600","region_id":50},{"id":518,"name":"","postal_code":"140200","region_id":50},{"id":519,"name":"Высоковск","postal_code":"141650","region_id":50},{"id":520,"name":"Голицыно","postal_code":"143040","region_id":50},{"id":521,"name":"Дедовск","postal_code":"143530","region_id":50},{"id":522,"name":"Дзержинский","postal_code":"140090","region_id":50},{"id":523,"name":"","postal_code":"141800","region_id":50},{"id":524,"name":"Долгопрудный","postal_code":"141700","region_id":50},{"id":525,"name":"Домодедово","postal_code":"142000","region_id":50},{"id":526,"name":"Дрезна","postal_code":"142660","region_id":50},{"id":527,"name":"Дубна","postal_code":"141980","region_id":50},{"id":528,"name":"Егорьевск","postal_code":"140300","region_id":50},{"id":529,"name":"Жуковский","postal_code":"140180","region_id":50},{"id":530,"name":"Зарайск","postal_code":"140600","region_id":50},{"id":531,"name":"Звенигород","postal_code":"143180","region_id":50},{"id":532,"name":"Ивантеевка","postal_code":"141280","region_id":50},{"id":533,"name":"","postal_code":"143500","region_id":50},{"id":534,"name":"Кашира","postal_code":"142900","region_id":50},{"id":535,"name":"","postal_code":"141601","region_id":50},{"id":536,"name":"Коломна","postal_code":"140400","region_id":50},{"id":537,"name":"Королёв","postal_code":"141060","region_id":50},{"id":538,"name":"Котельники","postal_code":"140053","region_id":50},{"id":539,"name":"Красноармейск","postal_code":"141290","region_id":50},{"id":540,"name":"Красногорск","postal_code":"143401","region_id":50},{"id":541,"name":"Краснозаводск","postal_code":"141321","region_id":50},{"id":542,"name":"Краснознаменск","postal_code":"143090","region_id":50},{"id":543,"name":"Кубинка","postal_code":"143070","region_id":50},{"id":544,"name":"Куровское","postal_code":"142620","region_id":50},{"id":545,"name":"Ликино-Дулёво","postal_code":"142663","region_id":50},{"id":546,"name":"Лобня","postal_code":"141055","region_id":50},{"id":547,"name":"Лосино-Петровский","postal_code":"141150","region_id":50},{"id":548,"name":"Луховицы","postal_code":"140500","region_id":50},{"id":549,"name":"Лыткарино","postal_code":"140080","region_id":50},{"id":550,"name":"Люберцы","postal_code":"140000","region_id":50},{"id":551,"name":"Можайск","postal_code":"143200","region_id":50},{"id":552,"name":"Мытищи","postal_code":"141000","region_id":50},{"id":553,"name":"","postal_code":"143300","region_id":50},{"id":554,"name":"","postal_code":"142400","region_id":50},{"id":555,"name":"","postal_code":"143000","region_id":50},{"id":556,"name":"Озёры","postal_code":"140560","region_id":50},{"id":557,"name":"","postal_code":"142600","region_id":50},{"id":558,"name":"Павловский Посад","postal_code":"142500","region_id":50},{"id":559,"name":"Пересвет","postal_code":"141320","region_id":50},{"id":560,"name":"Подольск","postal_code":"142100","region_id":50},{"id":561,"name":"Протвино","postal_code":"142280","region_id":50},{"id":562,"name":"Пушкино","postal_code":"141200","region_id":50},{"id":563,"name":"Пущино","postal_code":"142290","region_id":50},{"id":564,"name":"Раменское","postal_code":"140100","region_id":50},{"id":565,"name":"Реутов","postal_code":"143960","region_id":50},{"id":566,"name":"Рошаль","postal_code":"140730","region_id":50},{"id":567,"name":"Руза","postal_code":"143100","region_id":50},{"id":568,"name":"","postal_code":"141300","region_id":50},{"id":569,"name":"Серпухов","postal_code":"142200","region_id":50},{"id":570,"name":"Солнечногорск","postal_code":"141503","region_id":50},{"id":571,"name":"Старая Купавна","postal_code":"142450","region_id":50},{"id":572,"name":"Ступино","postal_code":"142800","region_id":50},{"id":573,"name":"Талдом","postal_code":"141900","region_id":50},{"id":574,"name":"Фрязино","postal_code":"141190","region_id":50},{"id":575,"name":"Химки","postal_code":"141402","region_id":50},{"id":576,"name":"Хотьково","postal_code":"141370","region_id":50},{"id":577,"name":"Черноголовка","postal_code":"142432","region_id":50},{"id":578,"name":"Чехов","postal_code":"142300","region_id":50},{"id":579,"name":"","postal_code":"140700","region_id":50},{"id":580,"name":"Щёлково","postal_code":"141100","region_id":50},{"id":581,"name":"Электрогорск","postal_code":"142530","region_id":50},{"id":582,"name":"Электросталь","postal_code":"144000","region_id":50},{"id":583,"name":"Электроугли","postal_code":"142455","region_id":50},{"id":584,"name":"Яхрома","postal_code":"141840","region_id":50},{"id":585,"name":"Апатиты","postal_code":"184200","region_id":51},{"id":586,"name":"Гаджиево","postal_code":"184670","region_id":51},{"id":587,"name":"Заозерск","postal_code":"184310","region_id":51},{"id":588,"name":"Заполярный","postal_code":"184430","region_id":51},{"id":589,"name":"Кандалакша","postal_code":"184042","region_id":51},{"id":590,"name":"Кировск","postal_code":"184250","region_id":51},{"id":591,"name":"Ковдор","postal_code":"184144","region_id":51},{"id":592,"name":"Кола","postal_code":"184380","region_id":51},{"id":593,"name":"Мончегорск","postal_code":"184505","region_id":51},{"id":594,"name":"Мурманск","postal_code":"183000","region_id":51},{"id":595,"name":"Оленегорск","postal_code":"184530","region_id":51},{"id":596,"name":"Островной","postal_code":"184640","region_id":51},{"id":597,"name":"Полярные Зори","postal_code":"184230","region_id":51},{"id":598,"name":"Полярный","postal_code":"184650","region_id":51},{"id":599,"name":"Североморск","postal_code":"184601","region_id":51},{"id":600,"name":"Снежногорск","postal_code":"184682","region_id":51},{"id":601,"name":"Нарьян-Мар","postal_code":"166000","region_id":80},{"id":602,"name":"Арзамас","postal_code":"607220","region_id":52},{"id":603,"name":"Балахна","postal_code":"606407","region_id":52},{"id":604,"name":"Богородск","postal_code":"607600","region_id":52},{"id":605,"name":"Бор","postal_code":"606440","region_id":52},{"id":606,"name":"Ветлуга","postal_code":"606860","region_id":52},{"id":607,"name":"Володарск","postal_code":"606072","region_id":52},{"id":608,"name":"Ворсма","postal_code":"606120","region_id":52},{"id":609,"name":"Выкса","postal_code":"607060","region_id":52},{"id":610,"name":"Горбатов","postal_code":"606125","region_id":52},{"id":611,"name":"Городец","postal_code":"606500","region_id":52},{"id":612,"name":"Дзержинск","postal_code":"606000","region_id":52},{"id":613,"name":"Заволжье","postal_code":"606520","region_id":52},{"id":614,"name":"Княгинино","postal_code":"606340","region_id":52},{"id":615,"name":"Кстово","postal_code":"607650","region_id":52},{"id":616,"name":"Кулебаки","postal_code":"607010","region_id":52},{"id":617,"name":"Лукоянов","postal_code":"607800","region_id":52},{"id":618,"name":"Лысково","postal_code":"606210","region_id":52},{"id":619,"name":"Навашино","postal_code":"607100","region_id":52},{"id":620,"name":"Нижний Новгород","postal_code":"603000","region_id":52},{"id":621,"name":"Павлово","postal_code":"606100","region_id":52},{"id":622,"name":"Первомайск","postal_code":"607751","region_id":52},{"id":623,"name":"Перевоз","postal_code":"607400","region_id":52},{"id":624,"name":"Саров","postal_code":"607180","region_id":52},{"id":625,"name":"Семенов","postal_code":"606605","region_id":52},{"id":626,"name":"Сергач","postal_code":"607510","region_id":52},{"id":627,"name":"Урень","postal_code":"606803","region_id":52},{"id":628,"name":"Чкаловск","postal_code":"606540","region_id":52},{"id":629,"name":"Шахунья","postal_code":"606910","region_id":52},{"id":630,"name":"Боровичи","postal_code":"174400","region_id":53},{"id":631,"name":"Валдай","postal_code":"175400","region_id":53},{"id":632,"name":"Великий Новгород","postal_code":"173000","region_id":53},{"id":633,"name":"Малая Вишера","postal_code":"174260","region_id":53},{"id":634,"name":"Окуловка","postal_code":"174350","region_id":53},{"id":635,"name":"Пестово","postal_code":"174510","region_id":53},{"id":636,"name":"Сольцы","postal_code":"175040","region_id":53},{"id":637,"name":"Старая Русса","postal_code":"175200","region_id":53},{"id":638,"name":"Холм","postal_code":"175270","region_id":53},{"id":639,"name":"Чудово","postal_code":"174210","region_id":53},{"id":640,"name":"Барабинск","postal_code":"632330","region_id":54},{"id":641,"name":"Бердск","postal_code":"633000","region_id":54},{"id":642,"name":"Болотное","postal_code":"633340","region_id":54},{"id":643,"name":"Искитим","postal_code":"633200","region_id":54},{"id":644,"name":"Карасук","postal_code":"632860","region_id":54},{"id":645,"name":"Каргат","postal_code":"632400","region_id":54},{"id":646,"name":"Куйбышев","postal_code":"632380","region_id":54},{"id":647,"name":"Купино","postal_code":"632730","region_id":54},{"id":648,"name":"Новосибирск","postal_code":"630000","region_id":54},{"id":649,"name":"Обь","postal_code":"633100","region_id":54},{"id":650,"name":"Татарск","postal_code":"632120","region_id":54},{"id":651,"name":"Тогучин","postal_code":"633450","region_id":54},{"id":652,"name":"Черепаново","postal_code":"633520","region_id":54},{"id":653,"name":"Чулым","postal_code":"632550","region_id":54},{"id":654,"name":"Исилькуль","postal_code":"646020","region_id":55},{"id":655,"name":"Калачинск","postal_code":"646900","region_id":55},{"id":656,"name":"Называевск","postal_code":"646100","region_id":55},{"id":657,"name":"Омск","postal_code":"644000","region_id":55},{"id":658,"name":"Тара","postal_code":"646530","region_id":55},{"id":659,"name":"Тюкалинск","postal_code":"646330","region_id":55},{"id":660,"name":"Абдулино","postal_code":"461743","region_id":56},{"id":661,"name":"Бугуруслан","postal_code":"461630","region_id":56},{"id":662,"name":"Бузулук","postal_code":"461040","region_id":56},{"id":663,"name":"Гай","postal_code":"462631","region_id":56},{"id":664,"name":"Кувандык","postal_code":"462240","region_id":56},{"id":665,"name":"Медногорск","postal_code":"462271","region_id":56},{"id":666,"name":"Новотроицк","postal_code":"462351","region_id":56},{"id":667,"name":"Оренбург","postal_code":"460000","region_id":56},{"id":668,"name":"Орск","postal_code":"462400","region_id":56},{"id":669,"name":"Соль-Илецк","postal_code":"461504","region_id":56},{"id":670,"name":"Сорочинск","postal_code":"461900","region_id":56},{"id":671,"name":"Ясный","postal_code":"462780","region_id":56},{"id":672,"name":"Болхов","postal_code":"303140","region_id":57},{"id":673,"name":"Дмитровск","postal_code":"303240","region_id":57},{"id":674,"name":"Ливны","postal_code":"303850","region_id":57},{"id":675,"name":"Малоархангельск","postal_code":"303369","region_id":57},{"id":676,"name":"Мценск","postal_code":"303030","region_id":57},{"id":677,"name":"Новосиль","postal_code":"303500","region_id":57},{"id":678,"name":"Орёл","postal_code":"302000","region_id":57},{"id":679,"name":"Белинский","postal_code":"442250","region_id":58},{"id":680,"name":"Городище","postal_code":"442310","region_id":58},{"id":681,"name":"Заречный","postal_code":"442960","region_id":58},{"id":682,"name":"Каменка","postal_code":"442240","region_id":58},{"id":683,"name":"Кузнецк","postal_code":"442530","region_id":58},{"id":684,"name":"Нижний Ломов","postal_code":"442150","region_id":58},{"id":685,"name":"Никольск","postal_code":"442680","region_id":58},{"id":686,"name":"Пенза","postal_code":"440000","region_id":58},{"id":687,"name":"Сердобск","postal_code":"442890","region_id":58},{"id":688,"name":"Спасск","postal_code":"442600","region_id":58},{"id":689,"name":"Сурск","postal_code":"442300","region_id":58},{"id":690,"name":"Александровск","postal_code":"618320","region_id":59},{"id":691,"name":"Березники","postal_code":"618400","region_id":59},{"id":692,"name":"Верещагино","postal_code":"617119","region_id":59},{"id":693,"name":"Горнозаводск","postal_code":"618820","region_id":59},{"id":694,"name":"Гремячинск","postal_code":"618270","region_id":59},{"id":695,"name":"Губаха","postal_code":"618250","region_id":59},{"id":696,"name":"Добрянка","postal_code":"618730","region_id":59},{"id":697,"name":"Кизел","postal_code":"618350","region_id":59},{"id":698,"name":"Красновишерск","postal_code":"618590","region_id":59},{"id":699,"name":"Краснокамск","postal_code":"617060","region_id":59},{"id":700,"name":"Кудымкар","postal_code":"619000","region_id":59},{"id":701,"name":"Кунгур","postal_code":"617470","region_id":59},{"id":702,"name":"Лысьва","postal_code":"618900","region_id":59},{"id":703,"name":"Нытва","postal_code":"617000","region_id":59},{"id":704,"name":"Оса","postal_code":"618120","region_id":59},{"id":705,"name":"Оханск","postal_code":"618100","region_id":59},{"id":706,"name":"Очер","postal_code":"617140","region_id":59},{"id":707,"name":"Пермь","postal_code":"614000","region_id":59},{"id":708,"name":"Соликамск","postal_code":"618541","region_id":59},{"id":709,"name":"Усолье","postal_code":"618460","region_id":59},{"id":710,"name":"Чайковский","postal_code":"617760","region_id":59},{"id":711,"name":"Чердынь","postal_code":"618601","region_id":59},{"id":712,"name":"Чермоз","postal_code":"617040","region_id":59},{"id":713,"name":"Чернушка","postal_code":"617830","region_id":59},{"id":714,"name":"Чусовой","postal_code":"618200","region_id":59},{"id":715,"name":"Арсеньев","postal_code":"692330","region_id":25},{"id":716,"name":"Артем","postal_code":"692486","region_id":25},{"id":717,"name":"Большой Камень","postal_code":"692801","region_id":25},{"id":718,"name":"Владивосток","postal_code":"690000","region_id":25},{"id":719,"name":"Дальнегорск","postal_code":"692441","region_id":25},{"id":720,"name":"Дальнереченск","postal_code":"692130","region_id":25},{"id":721,"name":"Лесозаводск","postal_code":"692031","region_id":25},{"id":722,"name":"Находка","postal_code":"692900","region_id":25},{"id":723,"name":"Партизанск","postal_code":"692851","region_id":25},{"id":724,"name":"Спасск-Дальний","postal_code":"692230","region_id":25},{"id":725,"name":"Уссурийск","postal_code":"692500","region_id":25},{"id":726,"name":"Фокино","postal_code":"692880","region_id":25},{"id":727,"name":"Великие Луки","postal_code":"182100","region_id":60},{"id":728,"name":"Гдов","postal_code":"181600","region_id":60},{"id":729,"name":"Дно","postal_code":"182670","region_id":60},{"id":730,"name":"Невель","postal_code":"182500","region_id":60},{"id":731,"name":"Новоржев","postal_code":"182440","region_id":60},{"id":732,"name":"Новосокольники","postal_code":"182200","region_id":60},{"id":733,"name":"Опочка","postal_code":"182333","region_id":60},{"id":734,"name":"Остров","postal_code":"181353","region_id":60},{"id":735,"name":"Печоры","postal_code":"181502","region_id":60},{"id":736,"name":"Порхов","postal_code":"182620","region_id":60},{"id":737,"name":"Псков","postal_code":"180000","region_id":60},{"id":738,"name":"Пустошка","postal_code":"182300","region_id":60},{"id":739,"name":"Пыталово","postal_code":"181410","region_id":60},{"id":740,"name":"Себеж","postal_code":"182250","region_id":60},{"id":741,"name":"Азов","postal_code":"346780","region_id":61},{"id":742,"name":"Аксай","postal_code":"346720","region_id":61},{"id":743,"name":"Батайск","postal_code":"346880","region_id":61},{"id":744,"name":"Белая Калитва","postal_code":"347040","region_id":61},{"id":745,"name":"Волгодонск","postal_code":"347360","region_id":61},{"id":746,"name":"Гуково","postal_code":"347870","region_id":61},{"id":747,"name":"Донецк","postal_code":"346330","region_id":61},{"id":748,"name":"Зверево","postal_code":"346310","region_id":61},{"id":749,"name":"Зерноград","postal_code":"347740","region_id":61},{"id":750,"name":"Каменск-Шахтинский","postal_code":"347800","region_id":61},{"id":751,"name":"Константиновск","postal_code":"347250","region_id":61},{"id":752,"name":"Красный Сулин","postal_code":"346350","region_id":61},{"id":753,"name":"Миллерово","postal_code":"346130","region_id":61},{"id":754,"name":"Морозовск","postal_code":"347210","region_id":61},{"id":755,"name":"Новочеркасск","postal_code":"346400","region_id":61},{"id":756,"name":"Новошахтинск","postal_code":"346900","region_id":61},{"id":757,"name":"Пролетарск","postal_code":"347540","region_id":61},{"id":758,"name":"Ростов-на-Дону","postal_code":"344000","region_id":61},{"id":759,"name":"Сальск","postal_code":"347630","region_id":61},{"id":760,"name":"Семикаракорск","postal_code":"346630","region_id":61},{"id":761,"name":"Таганрог","postal_code":"347900","region_id":61},{"id":762,"name":"Цимлянск","postal_code":"347320","region_id":61},{"id":763,"name":"Шахты","postal_code":"346500","region_id":61},{"id":764,"name":"Касимов","postal_code":"391300","region_id":62},{"id":765,"name":"Кораблино","postal_code":"391200","region_id":62},{"id":766,"name":"Михайлов","postal_code":"391710","region_id":62},{"id":767,"name":"Новомичуринск","postal_code":"391160","region_id":62},{"id":768,"name":"Рыбное","postal_code":"391110","region_id":62},{"id":769,"name":"Ряжск","postal_code":"391960","region_id":62},{"id":770,"name":"Рязань","postal_code":"390000","region_id":62},{"id":771,"name":"Сасово","postal_code":"391430","region_id":62},{"id":772,"name":"Скопин","postal_code":"391800","region_id":62},{"id":773,"name":"Спас-Клепики","postal_code":"391030","region_id":62},{"id":774,"name":"Спасск-Рязанский","postal_code":"391050","region_id":62},{"id":775,"name":"Шацк","postal_code":"391550","region_id":62},{"id":776,"name":"Жигулевск","postal_code":"445350","region_id":63},{"id":777,"name":"Кинель","postal_code":"446430","region_id":63},{"id":778,"name":"Нефтегорск","postal_code":"446600","region_id":63},{"id":779,"name":"Новокуйбышевск","postal_code":"446200","region_id":63},{"id":780,"name":"Октябрьск","postal_code":"445240","region_id":63},{"id":781,"name":"Отрадный","postal_code":"446300","region_id":63},{"id":782,"name":"Похвистнево","postal_code":"446450","region_id":63},{"id":783,"name":"Самара","postal_code":"443000","region_id":63},{"id":784,"name":"Сызрань","postal_code":"446000","region_id":63},{"id":785,"name":"Тольятти","postal_code":"445000","region_id":63},{"id":786,"name":"Чапаевск","postal_code":"446100","region_id":63},{"id":787,"name":"","postal_code":"190000","region_id":78},{"id":788,"name":"Аркадак","postal_code":"412210","region_id":64},{"id":789,"name":"Аткарск","postal_code":"412420","region_id":64},{"id":790,"name":"Балаково","postal_code":"413840","region_id":64},{"id":791,"name":"Балашов","postal_code":"412300","region_id":64},{"id":792,"name":"Вольск","postal_code":"412900","region_id":64},{"id":793,"name":"Ершов","postal_code":"413500","region_id":64},{"id":794,"name":"Калининск","postal_code":"412480","region_id":64},{"id":795,"name":"Красноармейск","postal_code":"412800","region_id":64},{"id":796,"name":"Красный Кут","postal_code":"413230","region_id":64},{"id":797,"name":"Маркс","postal_code":"413090","region_id":64},{"id":798,"name":"Новоузенск","postal_code":"413360","region_id":64},{"id":799,"name":"Петровск","postal_code":"412540","region_id":64},{"id":800,"name":"Пугачев","postal_code":"413720","region_id":64},{"id":801,"name":"Ртищево","postal_code":"412030","region_id":64},{"id":802,"name":"Саратов","postal_code":"410000","region_id":64},{"id":803,"name":"Хвалынск","postal_code":"412780","region_id":64},{"id":804,"name":"Шиханы","postal_code":"412950","region_id":64},{"id":805,"name":"Энгельс","postal_code":"413100","region_id":64},{"id":806,"name":"Александровск-Сахалинский","postal_code":"694420","region_id":65},{"id":807,"name":"Анива","postal_code":"694030","region_id":65},{"id":808,"name":"Долинск","postal_code":"694051","region_id":65},{"id":809,"name":"Корсаков","postal_code":"694020","region_id":65},{"id":810,"name":"Курильск","postal_code":"694530","region_id":65},{"id":811,"name":"Макаров","postal_code":"694140","region_id":65},{"id":812,"name":"Невельск","postal_code":"694740","region_id":65},{"id":813,"name":"Оха","postal_code":"694490","region_id":65},{"id":814,"name":"Поронайск","postal_code":"694240","region_id":65},{"id":815,"name":"Северо-Курильск","postal_code":"694550","region_id":65},{"id":816,"name":"Томари","postal_code":"694820","region_id":65},{"id":817,"name":"Углегорск","postal_code":"694920","region_id":65},{"id":818,"name":"Холмск","postal_code":"694620","region_id":65},{"id":819,"name":"Южно-Сахалинск","postal_code":"693000","region_id":65},{"id":820,"name":"Алапаевск","postal_code":"624600","region_id":66},{"id":821,"name":"Арамиль","postal_code":"624000","region_id":66},{"id":822,"name":"Артемовский","postal_code":"623780","region_id":66},{"id":823,"name":"Асбест","postal_code":"624260","region_id":66},{"id":824,"name":"Березовский","postal_code":"623700","region_id":66},{"id":825,"name":"Богданович","postal_code":"623530","region_id":66},{"id":826,"name":"Верхний Тагил","postal_code":"624160","region_id":66},{"id":827,"name":"Верхняя Пышма","postal_code":"624090","region_id":66},{"id":828,"name":"Верхняя Салда","postal_code":"624760","region_id":66},{"id":829,"name":"Верхняя Тура","postal_code":"624320","region_id":66},{"id":830,"name":"Верхотурье","postal_code":"624380","region_id":66},{"id":831,"name":"Волчанск","postal_code":"624940","region_id":66},{"id":832,"name":"Дегтярск","postal_code":"623270","region_id":66},{"id":833,"name":"Екатеринбург","postal_code":"620000","region_id":66},{"id":834,"name":"Заречный","postal_code":"624250","region_id":66},{"id":835,"name":"Ивдель","postal_code":"624590","region_id":66},{"id":836,"name":"Ирбит","postal_code":"623850","region_id":66},{"id":837,"name":"Каменск-Уральский","postal_code":"623400","region_id":66},{"id":838,"name":"Камышлов","postal_code":"624860","region_id":66},{"id":839,"name":"Карпинск","postal_code":"624930","region_id":66},{"id":840,"name":"Качканар","postal_code":"624350","region_id":66},{"id":841,"name":"Кировград","postal_code":"624140","region_id":66},{"id":842,"name":"Краснотурьинск","postal_code":"624440","region_id":66},{"id":843,"name":"Красноуральск","postal_code":"624330","region_id":66},{"id":844,"name":"Красноуфимск","postal_code":"623300","region_id":66},{"id":845,"name":"Кушва","postal_code":"624300","region_id":66},{"id":846,"name":"Лесной","postal_code":"624200","region_id":66},{"id":847,"name":"Михайловск","postal_code":"623080","region_id":66},{"id":848,"name":"Невьянск","postal_code":"624191","region_id":66},{"id":849,"name":"Нижние Серги","postal_code":"623090","region_id":66},{"id":850,"name":"Нижний Тагил","postal_code":"622000","region_id":66},{"id":851,"name":"Нижняя Салда","postal_code":"624740","region_id":66},{"id":852,"name":"Нижняя Тура","postal_code":"624220","region_id":66},{"id":853,"name":"Новая Ляля","postal_code":"624400","region_id":66},{"id":854,"name":"Новоуральск","postal_code":"624130","region_id":66},{"id":855,"name":"Первоуральск","postal_code":"623100","region_id":66},{"id":856,"name":"Полевской","postal_code":"623382","region_id":66},{"id":857,"name":"Ревда","postal_code":"623280","region_id":66},{"id":858,"name":"Реж","postal_code":"623750","region_id":66},{"id":859,"name":"Североуральск","postal_code":"624480","region_id":66},{"id":860,"name":"Серов","postal_code":"624981","region_id":66},{"id":861,"name":"Среднеуральск","postal_code":"624070","region_id":66},{"id":862,"name":"Сухой Лог","postal_code":"624800","region_id":66},{"id":863,"name":"Сысерть","postal_code":"624021","region_id":66},{"id":864,"name":"Тавда","postal_code":"623950","region_id":66},{"id":865,"name":"Талица","postal_code":"623640","region_id":66},{"id":866,"name":"Туринск","postal_code":"623900","region_id":66},{"id":867,"name":"","postal_code":"299700","region_id":85},{"id":868,"name":"Алагир","postal_code":"363240","region_id":15},{"id":869,"name":"Ардон","postal_code":"363331","region_id":15},{"id":870,"name":"Беслан","postal_code":"363020","region_id":15},{"id":871,"name":"Владикавказ","postal_code":"362000","region_id":15},{"id":872,"name":"Дигора","postal_code":"363410","region_id":15},{"id":873,"name":"Моздок","postal_code":"363750","region_id":15},{"id":874,"name":"Велиж","postal_code":"216290","region_id":67},{"id":875,"name":"Вязьма","postal_code":"215110","region_id":67},{"id":876,"name":"Гагарин","postal_code":"215010","region_id":67},{"id":877,"name":"Демидов","postal_code":"216240","region_id":67},{"id":878,"name":"Десногорск","postal_code":"216400","region_id":67},{"id":879,"name":"Дорогобуж","postal_code":"215710","region_id":67},{"id":880,"name":"Духовщина","postal_code":"216200","region_id":67},{"id":881,"name":"Ельня","postal_code":"216330","region_id":67},{"id":882,"name":"Починок","postal_code":"216450","region_id":67},{"id":883,"name":"Рославль","postal_code":"216500","region_id":67},{"id":884,"name":"Рудня","postal_code":"216790","region_id":67},{"id":885,"name":"Сафоново","postal_code":"215500","region_id":67},{"id":886,"name":"Смоленск","postal_code":"214000","region_id":67},{"id":887,"name":"Сычевка","postal_code":"215279","region_id":67},{"id":888,"name":"Ярцево","postal_code":"215800","region_id":67},{"id":889,"name":"Благодарный","postal_code":"356420","region_id":26},{"id":890,"name":"Буденновск","postal_code":"356800","region_id":26},{"id":891,"name":"Георгиевск","postal_code":"357820","region_id":26},{"id":892,"name":"Ессентуки","postal_code":"357600","region_id":26},{"id":893,"name":"Железноводск","postal_code":"357400","region_id":26},{"id":894,"name":"Зеленокумск","postal_code":"357910","region_id":26},{"id":895,"name":"Изобильный","postal_code":"356140","region_id":26},{"id":896,"name":"Ипатово","postal_code":"356630","region_id":26},{"id":897,"name":"Кисловодск","postal_code":"357700","region_id":26},{"id":898,"name":"Лермонтов","postal_code":"357340","region_id":26},{"id":899,"name":"Минеральные Воды","postal_code":"357200","region_id":26},{"id":900,"name":"Михайловск","postal_code":"356240","region_id":26},{"id":901,"name":"Невинномысск","postal_code":"357100","region_id":26},{"id":902,"name":"Нефтекумск","postal_code":"356880","region_id":26},{"id":903,"name":"Новоалександровск","postal_code":"356000","region_id":26},{"id":904,"name":"Новопавловск","postal_code":"357300","region_id":26},{"id":905,"name":"Пятигорск","postal_code":"357500","region_id":26},{"id":906,"name":"Светлоград","postal_code":"356530","region_id":26},{"id":907,"name":"Ставрополь","postal_code":"355000","region_id":26},{"id":908,"name":"Жердевка","postal_code":"393670","region_id":68},{"id":909,"name":"Кирсанов","postal_code":"393360","region_id":68},{"id":910,"name":"Котовск","postal_code":"393190","region_id":68},{"id":911,"name":"Мичуринск","postal_code":"393760","region_id":68},{"id":912,"name":"Моршанск","postal_code":"393950","region_id":68},{"id":913,"name":"Рассказово","postal_code":"393250","region_id":68},{"id":914,"name":"Тамбов","postal_code":"392000","region_id":68},{"id":915,"name":"Уварово","postal_code":"393460","region_id":68},{"id":916,"name":"Агрыз","postal_code":"422230","region_id":16},{"id":917,"name":"Азнакаево","postal_code":"423330","region_id":16},{"id":918,"name":"Альметьевск","postal_code":"423403","region_id":16},{"id":919,"name":"Арск","postal_code":"422000","region_id":16},{"id":920,"name":"Бавлы","postal_code":"423930","region_id":16},{"id":921,"name":"Болгар","postal_code":"422840","region_id":16},{"id":922,"name":"Бугульма","postal_code":"423230","region_id":16},{"id":923,"name":"Буинск","postal_code":"422430","region_id":16},{"id":924,"name":"Елабуга","postal_code":"423600","region_id":16},{"id":925,"name":"Заинск","postal_code":"423520","region_id":16},{"id":926,"name":"Зеленодольск","postal_code":"422521","region_id":16},{"id":927,"name":"Иннополис","postal_code":"420500","region_id":16},{"id":928,"name":"Казань","postal_code":"420000","region_id":16},{"id":929,"name":"Кукмор","postal_code":"422110","region_id":16},{"id":930,"name":"Лаишево","postal_code":"422610","region_id":16},{"id":931,"name":"Лениногорск","postal_code":"423250","region_id":16},{"id":932,"name":"Мамадыш","postal_code":"422190","region_id":16},{"id":933,"name":"Менделеевск","postal_code":"423650","region_id":16},{"id":934,"name":"Мензелинск","postal_code":"423700","region_id":16},{"id":935,"name":"Набережные Челны","postal_code":"423800","region_id":16},{"id":936,"name":"Нижнекамск","postal_code":"423570","region_id":16},{"id":937,"name":"Нурлат","postal_code":"423040","region_id":16},{"id":938,"name":"Тетюши","postal_code":"422370","region_id":16},{"id":939,"name":"Чистополь","postal_code":"422951","region_id":16},{"id":940,"name":"Андреаполь","postal_code":"172800","region_id":69},{"id":941,"name":"Бежецк","postal_code":"171980","region_id":69},{"id":942,"name":"Белый","postal_code":"172530","region_id":69},{"id":943,"name":"Бологое","postal_code":"171070","region_id":69},{"id":944,"name":"Весьегонск","postal_code":"171720","region_id":69},{"id":945,"name":"Вышний Волочек","postal_code":"171150","region_id":69},{"id":946,"name":"Западная Двина","postal_code":"172610","region_id":69},{"id":947,"name":"Зубцов","postal_code":"172332","region_id":69},{"id":948,"name":"Калязин","postal_code":"171571","region_id":69},{"id":949,"name":"Кашин","postal_code":"171640","region_id":69},{"id":950,"name":"Кимры","postal_code":"171500","region_id":69},{"id":951,"name":"Конаково","postal_code":"171250","region_id":69},{"id":952,"name":"Красный Холм","postal_code":"171660","region_id":69},{"id":953,"name":"Кувшиново","postal_code":"172110","region_id":69},{"id":954,"name":"Лихославль","postal_code":"171210","region_id":69},{"id":955,"name":"Нелидово","postal_code":"172520","region_id":69},{"id":956,"name":"Осташков","postal_code":"172730","region_id":69},{"id":957,"name":"Ржев","postal_code":"172380","region_id":69},{"id":958,"name":"Старица","postal_code":"171360","region_id":69},{"id":959,"name":"Тверь","postal_code":"170000","region_id":69},{"id":960,"name":"Торжок","postal_code":"172000","region_id":69},{"id":961,"name":"Торопец","postal_code":"172842","region_id":69},{"id":962,"name":"Удомля","postal_code":"171841","region_id":69},{"id":963,"name":"Асино","postal_code":"636840","region_id":70},{"id":964,"name":"Кедровый","postal_code":"636615","region_id":70},{"id":965,"name":"Колпашево","postal_code":"636460","region_id":70},{"id":966,"name":"Северск","postal_code":"636000","region_id":70},{"id":967,"name":"Стрежевой","postal_code":"636780","region_id":70},{"id":968,"name":"Томск","postal_code":"634000","region_id":70},{"id":969,"name":"Алексин","postal_code":"301352","region_id":71},{"id":970,"name":"Белев","postal_code":"301530","region_id":71},{"id":971,"name":"Богородицк","postal_code":"301830","region_id":71},{"id":972,"name":"Болохово","postal_code":"301280","region_id":71},{"id":973,"name":"Венев","postal_code":"301320","region_id":71},{"id":974,"name":"Донской","postal_code":"301760","region_id":71},{"id":975,"name":"Ефремов","postal_code":"301840","region_id":71},{"id":976,"name":"Кимовск","postal_code":"301720","region_id":71},{"id":977,"name":"Киреевск","postal_code":"301260","region_id":71},{"id":978,"name":"Липки","postal_code":"301264","region_id":71},{"id":979,"name":"Новомосковск","postal_code":"301650","region_id":71},{"id":980,"name":"Плавск","postal_code":"301470","region_id":71},{"id":981,"name":"Советск","postal_code":"301205","region_id":71},{"id":982,"name":"Суворов","postal_code":"301430","region_id":71},{"id":983,"name":"Тула","postal_code":"300000","region_id":71},{"id":984,"name":"Узловая","postal_code":"301600","region_id":71},{"id":985,"name":"Чекалин","postal_code":"301414","region_id":71},{"id":986,"name":"Щекино","postal_code":"301240","region_id":71},{"id":987,"name":"Ясногорск","postal_code":"301030","region_id":71},{"id":988,"name":"Ак-Довурак","postal_code":"668050","region_id":17},{"id":989,"name":"Кызыл","postal_code":"667000","region_id":17},{"id":990,"name":"Туран","postal_code":"668510","region_id":17},{"id":991,"name":"Чадан","postal_code":"668110","region_id":17},{"id":992,"name":"Шагонар","postal_code":"668210","region_id":17},{"id":993,"name":"Заводоуковск","postal_code":"627140","region_id":72},{"id":994,"name":"Ишим","postal_code":"627705","region_id":72},{"id":995,"name":"Тобольск","postal_code":"626150","region_id":72},{"id":996,"name":"Тюмень","postal_code":"625000","region_id":72},{"id":997,"name":"Ялуторовск","postal_code":"627010","region_id":72},{"id":998,"name":"Воткинск","postal_code":"427430","region_id":18},{"id":999,"name":"Глазов","postal_code":"427620","region_id":18},{"id":1000,"name":"Ижевск","postal_code":"426000","region_id":18},{"id":1001,"name":"Камбарка","postal_code":"427950","region_id":18},{"id":1002,"name":"Можга","postal_code":"427759","region_id":18},{"id":1003,"name":"Сарапул","postal_code":"427960","region_id":18},{"id":1004,"name":"Барыш","postal_code":"433750","region_id":73},{"id":1005,"name":"Димитровград","postal_code":"433500","region_id":73},{"id":1006,"name":"Инза","postal_code":"433030","region_id":73},{"id":1007,"name":"Новоульяновск","postal_code":"433300","region_id":73},{"id":1008,"name":"Сенгилей","postal_code":"433380","region_id":73},{"id":1009,"name":"Ульяновск","postal_code":"432000","region_id":73},{"id":1010,"name":"Амурск","postal_code":"682640","region_id":27},{"id":1011,"name":"Бикин","postal_code":"682970","region_id":27},{"id":1012,"name":"Вяземский","postal_code":"682950","region_id":27},{"id":1013,"name":"Комсомольск-на-Амуре","postal_code":"681000","region_id":27},{"id":1014,"name":"Николаевск-на-Амуре","postal_code":"682460","region_id":27},{"id":1015,"name":"Советская Гавань","postal_code":"682800","region_id":27},{"id":1016,"name":"Хабаровск","postal_code":"680000","region_id":27},{"id":1017,"name":"Абаза","postal_code":"655750","region_id":19},{"id":1018,"name":"Абакан","postal_code":"655000","region_id":19},{"id":1019,"name":"Саяногорск","postal_code":"655602","region_id":19},{"id":1020,"name":"Сорск","postal_code":"655111","region_id":19},{"id":1021,"name":"Черногорск","postal_code":"655151","region_id":19},{"id":1022,"name":"Белоярский","postal_code":"628160","region_id":81},{"id":1023,"name":"Когалым","postal_code":"628481","region_id":81},{"id":1024,"name":"Лангепас","postal_code":"628671","region_id":81},{"id":1025,"name":"Лянтор","postal_code":"628449","region_id":81},{"id":1026,"name":"Мегион","postal_code":"628680","region_id":81},{"id":1027,"name":"Нефтеюганск","postal_code":"628301","region_id":81},{"id":1028,"name":"Нижневартовск","postal_code":"628600","region_id":81},{"id":1029,"name":"Нягань","postal_code":"628181","region_id":81},{"id":1030,"name":"Покачи","postal_code":"628660","region_id":81},{"id":1031,"name":"Пыть-Ях","postal_code":"628380","region_id":81},{"id":1032,"name":"Радужный","postal_code":"628461","region_id":81},{"id":1033,"name":"Советский","postal_code":"628240","region_id":81},{"id":1034,"name":"Сургут","postal_code":"628400","region_id":81},{"id":1035,"name":"Урай","postal_code":"628280","region_id":81},{"id":1036,"name":"Ханты-Мансийск","postal_code":"628000","region_id":81},{"id":1037,"name":"Югорск","postal_code":"628260","region_id":81},{"id":1038,"name":"Аша","postal_code":"456015","region_id":74},{"id":1039,"name":"Бакал","postal_code":"456900","region_id":74},{"id":1040,"name":"Верхнеуральск","postal_code":"457670","region_id":74},{"id":1041,"name":"Верхний Уфалей","postal_code":"456800","region_id":74},{"id":1042,"name":"Еманжелинск","postal_code":"456580","region_id":74},{"id":1043,"name":"Златоуст","postal_code":"456200","region_id":74},{"id":1044,"name":"Карабаш","postal_code":"456140","region_id":74},{"id":1045,"name":"Карталы","postal_code":"457353","region_id":74},{"id":1046,"name":"Касли","postal_code":"456833","region_id":74},{"id":1047,"name":"Катав-Ивановск","postal_code":"456110","region_id":74},{"id":1048,"name":"Копейск","postal_code":"456600","region_id":74},{"id":1049,"name":"Коркино","postal_code":"456550","region_id":74},{"id":1050,"name":"Куса","postal_code":"456940","region_id":74},{"id":1051,"name":"Кыштым","postal_code":"456870","region_id":74},{"id":1052,"name":"Магнитогорск","postal_code":"455000","region_id":74},{"id":1053,"name":"Миасс","postal_code":"456300","region_id":74},{"id":1054,"name":"Миньяр","postal_code":"456007","region_id":74},{"id":1055,"name":"Нязепетровск","postal_code":"456971","region_id":74},{"id":1056,"name":"Озерск","postal_code":"456780","region_id":74},{"id":1057,"name":"Пласт","postal_code":"457020","region_id":74},{"id":1058,"name":"Сатка","postal_code":"456913","region_id":74},{"id":1059,"name":"Сим","postal_code":"456020","region_id":74},{"id":1060,"name":"Снежинск","postal_code":"456770","region_id":74},{"id":1061,"name":"Трехгорный","postal_code":"456080","region_id":74},{"id":1062,"name":"Троицк","postal_code":"457100","region_id":74},{"id":1063,"name":"Усть-Катав","postal_code":"456040","region_id":74},{"id":1064,"name":"Чебаркуль","postal_code":"456439","region_id":74},{"id":1065,"name":"Челябинск","postal_code":"454000","region_id":74},{"id":1066,"name":"Южноуральск","postal_code":"457040","region_id":74},{"id":1067,"name":"Юрюзань","postal_code":"456120","region_id":74},{"id":1068,"name":"Аргун","postal_code":"","region_id":20},{"id":1069,"name":"Грозный","postal_code":"364000","region_id":20},{"id":1070,"name":"Гудермес","postal_code":"366200","region_id":20},{"id":1071,"name":"Курчалой","postal_code":"366314","region_id":20},{"id":1072,"name":"","postal_code":"366500","region_id":20},{"id":1073,"name":"Шали","postal_code":"366300","region_id":20},{"id":1074,"name":"Алатырь","postal_code":"429820","region_id":21},{"id":1075,"name":"Канаш","postal_code":"429330","region_id":21},{"id":1076,"name":"Козловка","postal_code":"429430","region_id":21},{"id":1077,"name":"Мариинский Посад","postal_code":"429570","region_id":21},{"id":1078,"name":"Новочебоксарск","postal_code":"429950","region_id":21},{"id":1079,"name":"Цивильск","postal_code":"429900","region_id":21},{"id":1080,"name":"Чебоксары","postal_code":"428000","region_id":21},{"id":1081,"name":"Шумерля","postal_code":"429120","region_id":21},{"id":1082,"name":"Ядрин","postal_code":"429061","region_id":21},{"id":1083,"name":"Анадырь","postal_code":"689000","region_id":82},{"id":1084,"name":"Билибино","postal_code":"689450","region_id":82},{"id":1085,"name":"Певек","postal_code":"689400","region_id":82},{"id":1086,"name":"Алдан","postal_code":"678900","region_id":14},{"id":1087,"name":"Верхоянск","postal_code":"678530","region_id":14},{"id":1088,"name":"Вилюйск","postal_code":"678200","region_id":14},{"id":1089,"name":"Ленск","postal_code":"678141","region_id":14},{"id":1090,"name":"Мирный","postal_code":"678170","region_id":14},{"id":1091,"name":"Нерюнгри","postal_code":"678960","region_id":14},{"id":1092,"name":"Нюрба","postal_code":"678450","region_id":14},{"id":1093,"name":"Олекминск","postal_code":"678100","region_id":14},{"id":1094,"name":"Покровск","postal_code":"678000","region_id":14},{"id":1095,"name":"Среднеколымск","postal_code":"678790","region_id":14},{"id":1096,"name":"Томмот","postal_code":"678953","region_id":14},{"id":1097,"name":"Удачный","postal_code":"678188","region_id":14},{"id":1098,"name":"Якутск","postal_code":"677000","region_id":14},{"id":1099,"name":"Губкинский","postal_code":"629830","region_id":83},{"id":1100,"name":"Лабытнанги","postal_code":"629400","region_id":83},{"id":1101,"name":"Муравленко","postal_code":"629601","region_id":83},{"id":1102,"name":"Надым","postal_code":"629734","region_id":83},{"id":1103,"name":"Новый Уренгой","postal_code":"629300","region_id":83},{"id":1104,"name":"Ноябрьск","postal_code":"629800","region_id":83},{"id":1105,"name":"Салехард","postal_code":"629000","region_id":83},{"id":1106,"name":"Тарко-Сале","postal_code":"629850","region_id":83},{"id":1107,"name":"Гаврилов-Ям","postal_code":"152240","region_id":76},{"id":1108,"name":"Данилов","postal_code":"152070","region_id":76},{"id":1109,"name":"Любим","postal_code":"152470","region_id":76},{"id":1110,"name":"Мышкин","postal_code":"152830","region_id":76},{"id":1111,"name":"Переславль-Залесский","postal_code":"152020","region_id":76},{"id":1112,"name":"Пошехонье","postal_code":"152850","region_id":76},{"id":1113,"name":"Ростов","postal_code":"152150","region_id":76},{"id":1114,"name":"Рыбинск","postal_code":"152900","region_id":76},{"id":1115,"name":"Тутаев","postal_code":"152300","region_id":76},{"id":1116,"name":"Углич","postal_code":"152610","region_id":76},{"id":1117,"name":"Ярославль","postal_code":"150000","region_id":76}]